COSMOS 2588             
1 64095U 25109A   26068.81179522  .00009169  00000+0  32611-3 0  9998
2 64095  72.9704  73.5401 0005019 308.6780  51.3966 15.29122656 44425
STARLINK-34882          
1 66227U 25244X   26068.71011881  .00027715  00000+0  94451-3 0  9996
2 66227  53.1598 229.7417 0001210  56.6324 303.4792 15.30195652 21668
